[{"OBJECT_NAME":"NUSAT-43 (R DIENG-KUNTZ)","OBJECT_ID":"2023-084AN","EPOCH":"2026-03-08T21:55:35.625792","MEAN_MOTION":15.74780826,"ECCENTRICITY":0.00059701,"INCLINATION":97.4369,"RA_OF_ASC_NODE":210.0765,"ARG_OF_PERICENTER":240.2474,"MEAN_ANOMALY":119.8197,"EPHEMERIS_TYPE":0,"CLASSIFICATION_TYPE":"U","NORAD_CAT_ID":56968,"ELEMENT_SET_NO":999,"REV_AT_EPOCH":15344,"BSTAR":0.0011289476,"MEAN_MOTION_DOT":0.00168767,"MEAN_MOTION_DDOT":0},{"OBJECT_NAME":"STARLINK-36352","OBJECT_ID":"2026-016G","EPOCH":"2026-03-09T16:20:23.214336","MEAN_MOTION":15.75202999,"ECCENTRICITY":0.00018531,"INCLINATION":97.2836,"RA_OF_ASC_NODE":129.1934,"ARG_OF_PERICENTER":70.8878,"MEAN_ANOMALY":289.2588,"EPHEMERIS_TYPE":0,"CLASSIFICATION_TYPE":"U","NORAD_CAT_ID":67567,"ELEMENT_SET_NO":999,"REV_AT_EPOCH":680,"BSTAR":0.0014643399,"MEAN_MOTION_DOT":0.00224247,"MEAN_MOTION_DDOT":0}]
