NUSAT-43 (R DIENG-KUNTZ)
1 56968U 23084AN  26067.91360678  .00168767  00000+0  11289-2 0  9999
2 56968  97.4369 210.0765 0005970 240.2474 119.8197 15.74780826153440
STARLINK-36352          
1 67567U 26016G   26068.68082424  .00224247  00000+0  14643-2 0  9992
2 67567  97.2836 129.1934 0001853  70.8878 289.2588 15.75202999  6807
